{"type": "FeatureCollection", "features": [ {"type": "Feature", "properties": {"norad_id": 42738, "name": "QZS-2 (QZSS/PRN 194)", "group": "gnss", "lat": 38.42604341990676, "lon": -41.433739152862536, "alt_km": 38863.791350508596, "timestamp": "2025-12-22T05:49:03.742255+00:00", "meta": {"OBJECT_NAME": "QZS-2 (QZSS/PRN 194)", "OBJECT_ID": "2017-028A", "EPOCH": "2025-12-21T12:44:15.516096", "MEAN_MOTION": 1.00280763, "ECCENTRICITY": 0.07561437, "INCLINATION": 39.6996, "RA_OF_ASC_NODE": 245.7532, "ARG_OF_PERICENTER": 269.5788, "MEAN_ANOMALY": 268.1676, "EPHEMERIS_TYPE": 0, "CLASSIFICATION_TYPE": "U", "NORAD_CAT_ID": 42738, "ELEMENT_SET_NO": 999, "REV_AT_EPOCH": 584, "BSTAR": 0, "MEAN_MOTION_DOT": -1.06e-06, "MEAN_MOTION_DDOT": 0}, "tle": {"line1": "1 42738U 17028A   25355.53073514 -.00000106  00000+0  00000+0 0  9996", "line2": "2 42738  39.6996 245.7532 0756143 269.5788 268.1676  1.00280763  5847"}}, "geometry": {"type": "Point", "coordinates": [-41.433739152862536, 38.42604341990676]}}, {"type": "Feature", "properties": {"norad_id": 42917, "name": "QZS-3 (QZSS/PRN 199)", "group": "gnss", "lat": 0.03425934071108191, "lon": -54.68393710937044, "alt_km": 35780.24592724029, "timestamp": "2025-12-22T05:49:03.742277+00:00", "meta": {"OBJECT_NAME": "QZS-3 (QZSS/PRN 199)", "OBJECT_ID": "2017-048A", "EPOCH": "2025-12-21T17:13:32.111328", "MEAN_MOTION": 1.00267349, "ECCENTRICITY": 0.000186, "INCLINATION": 0.0657, "RA_OF_ASC_NODE": 184.7731, "ARG_OF_PERICENTER": 95.8159, "MEAN_ANOMALY": 195.3352, "EPHEMERIS_TYPE": 0, "CLASSIFICATION_TYPE": "U", "NORAD_CAT_ID": 42917, "ELEMENT_SET_NO": 999, "REV_AT_EPOCH": 3048, "BSTAR": 0, "MEAN_MOTION_DOT": -3.26e-06, "MEAN_MOTION_DDOT": 0}, "tle": {"line1": "1 42917U 17048A   25355.71773277 -.00000326  00000+0  00000+0 0  9994", "line2": "2 42917   0.0657 184.7731 0001860  95.8159 195.3352  1.00267349 30481"}}, "geometry": {"type": "Point", "coordinates": [-54.68393710937044, 0.03425934071108191]}}, {"type": "Feature", "properties": {"norad_id": 42939, "name": "COSMOS 2522 (752)", "group": "gnss", "lat": 20.602678246955463, "lon": -151.54783712692307, "alt_km": 19142.737799930226, "timestamp": "2025-12-22T05:49:03.742290+00:00", "meta": {"OBJECT_NAME": "COSMOS 2522 (752)", "OBJECT_ID": "2017-055A", "EPOCH": "2025-12-20T19:18:35.639424", "MEAN_MOTION": 2.13102071, "ECCENTRICITY": 0.00063061, "INCLINATION": 64.0764, "RA_OF_ASC_NODE": 197.9542, "ARG_OF_PERICENTER": 223.7674, "MEAN_ANOMALY": 136.256, "EPHEMERIS_TYPE": 0, "CLASSIFICATION_TYPE": "U", "NORAD_CAT_ID": 42939, "ELEMENT_SET_NO": 999, "REV_AT_EPOCH": 6417, "BSTAR": 0, "MEAN_MOTION_DOT": 9.9e-07, "MEAN_MOTION_DDOT": 0}, "tle": {"line1": "1 42939U 17055A   25354.80457916  .00000099  00000+0  00000+0 0  9990", "line2": "2 42939  64.0764 197.9542 0006306 223.7674 136.2560  2.13102071 64177"}}, "geometry": {"type": "Point", "coordinates": [-151.54783712692307, 20.602678246955463]}}, {"type": "Feature", "properties": {"norad_id": 42965, "name": "QZS-4 (QZSS/PRN 195)", "group": "gnss", "lat": -15.382177989574949, "lon": -33.26447996391855, "alt_km": 34204.32706745896, "timestamp": "2025-12-22T05:49:03.742303+00:00", "meta": {"OBJECT_NAME": "QZS-4 (QZSS/PRN 195)", "OBJECT_ID": "2017-062A", "EPOCH": "2025-12-20T12:23:32.377344", "MEAN_MOTION": 1.00250818, "ECCENTRICITY": 0.07514763, "INCLINATION": 40.2219, "RA_OF_ASC_NODE": 345.7724, "ARG_OF_PERICENTER": 271.7049, "MEAN_ANOMALY": 153.5074, "EPHEMERIS_TYPE": 0, "CLASSIFICATION_TYPE": "U", "NORAD_CAT_ID": 42965, "ELEMENT_SET_NO": 999, "REV_AT_EPOCH": 3001, "BSTAR": 0, "MEAN_MOTION_DOT": -3.25e-06, "MEAN_MOTION_DDOT": 0}, "tle": {"line1": "1 42965U 17062A   25354.51634696 -.00000325  00000+0  00000+0 0  9990", "line2": "2 42965  40.2219 345.7724 0751476 271.7049 153.5074  1.00250818 30012"}}, "geometry": {"type": "Point", "coordinates": [-33.26447996391855, -15.382177989574949]}}, {"type": "Feature", "properties": {"norad_id": 43001, "name": "BEIDOU-3 M1 (C19)", "group": "gnss", "lat": -19.86836014174193, "lon": -97.25201058427061, "alt_km": 21534.610456431146, "timestamp": "2025-12-22T05:49:03.742318+00:00", "meta": {"OBJECT_NAME": "BEIDOU-3 M1 (C19)", "OBJECT_ID": "2017-069A", "EPOCH": "2025-12-21T09:37:16.890816", "MEAN_MOTION": 1.86231333, "ECCENTRICITY": 0.00096297, "INCLINATION": 56.5338, "RA_OF_ASC_NODE": 68.9479, "ARG_OF_PERICENTER": 302.2645, "MEAN_ANOMALY": 57.6886, "EPHEMERIS_TYPE": 0, "CLASSIFICATION_TYPE": "U", "NORAD_CAT_ID": 43001, "ELEMENT_SET_NO": 999, "REV_AT_EPOCH": 5529, "BSTAR": 0, "MEAN_MOTION_DOT": -3.5e-07, "MEAN_MOTION_DDOT": 0}, "tle": {"line1": "1 43001U 17069A   25355.40088994 -.00000035  00000+0  00000+0 0  9990", "line2": "2 43001  56.5338  68.9479 0009629 302.2645  57.6886  1.86231333 55292"}}, "geometry": {"type": "Point", "coordinates": [-97.25201058427061, -19.86836014174193]}}, {"type": "Feature", "properties": {"norad_id": 43002, "name": "BEIDOU-3 M2 (C20)", "group": "gnss", "lat": -49.360986198888874, "lon": -60.71145750441624, "alt_km": 21531.593618074992, "timestamp": "2025-12-22T05:49:03.742329+00:00", "meta": {"OBJECT_NAME": "BEIDOU-3 M2 (C20)", "OBJECT_ID": "2017-069B", "EPOCH": "2025-12-21T08:08:32.718912", "MEAN_MOTION": 1.86231017, "ECCENTRICITY": 0.00066324, "INCLINATION": 56.5336, "RA_OF_ASC_NODE": 68.9856, "ARG_OF_PERICENTER": 329.1599, "MEAN_ANOMALY": 30.8471, "EPHEMERIS_TYPE": 0, "CLASSIFICATION_TYPE": "U", "NORAD_CAT_ID": 43002, "ELEMENT_SET_NO": 999, "REV_AT_EPOCH": 5528, "BSTAR": 0, "MEAN_MOTION_DOT": -3.5e-07, "MEAN_MOTION_DDOT": 0}, "tle": {"line1": "1 43002U 17069B   25355.33926758 -.00000035  00000+0  00000+0 0  9992", "line2": "2 43002  56.5336  68.9856 0006632 329.1599  30.8471  1.86231017 55288"}}, "geometry": {"type": "Point", "coordinates": [-60.71145750441624, -49.360986198888874]}}, {"type": "Feature", "properties": {"norad_id": 43055, "name": "GSAT0215 (GALILEO 19)", "group": "gnss", "lat": -38.773672300381314, "lon": 80.44546097158285, "alt_km": 23228.62247301357, "timestamp": "2025-12-22T05:49:03.742343+00:00", "meta": {"OBJECT_NAME": "GSAT0215 (GALILEO 19)", "OBJECT_ID": "2017-079A", "EPOCH": "2025-12-21T06:45:20.639232", "MEAN_MOTION": 1.70474038, "ECCENTRICITY": 0.0001214, "INCLINATION": 55.1273, "RA_OF_ASC_NODE": 226.4024, "ARG_OF_PERICENTER": 349.3948, "MEAN_ANOMALY": 10.7111, "EPHEMERIS_TYPE": 0, "CLASSIFICATION_TYPE": "U", "NORAD_CAT_ID": 43055, "ELEMENT_SET_NO": 999, "REV_AT_EPOCH": 4995, "BSTAR": 0, "MEAN_MOTION_DOT": 7.3e-07, "MEAN_MOTION_DDOT": 0}, "tle": {"line1": "1 43055U 17079A   25355.28148888  .00000073  00000+0  00000+0 0  9996", "line2": "2 43055  55.1273 226.4024 0001214 349.3948  10.7111  1.70474038 49952"}}, "geometry": {"type": "Point", "coordinates": [80.44546097158285, -38.773672300381314]}}, {"type": "Feature", "properties": {"norad_id": 43056, "name": "GSAT0216 (GALILEO 20)", "group": "gnss", "lat": 39.604987012553536, "lon": -98.38252196754736, "alt_km": 23217.00707786072, "timestamp": "2025-12-22T05:49:03.742354+00:00", "meta": {"OBJECT_NAME": "GSAT0216 (GALILEO 20)", "OBJECT_ID": "2017-079B", "EPOCH": "2025-12-19T19:30:44.926272", "MEAN_MOTION": 1.70474153, "ECCENTRICITY": 0.00023685, "INCLINATION": 55.1281, "RA_OF_ASC_NODE": 226.4428, "ARG_OF_PERICENTER": 323.7267, "MEAN_ANOMALY": 36.3665, "EPHEMERIS_TYPE": 0, "CLASSIFICATION_TYPE": "U", "NORAD_CAT_ID": 43056, "ELEMENT_SET_NO": 999, "REV_AT_EPOCH": 4994, "BSTAR": 0, "MEAN_MOTION_DOT": 6.9e-07, "MEAN_MOTION_DDOT": 0}, "tle": {"line1": "1 43056U 17079B   25353.81301998  .00000069  00000+0  00000+0 0  9992", "line2": "2 43056  55.1281 226.4428 0002368 323.7267  36.3665  1.70474153 49946"}}, "geometry": {"type": "Point", "coordinates": [-98.38252196754736, 39.604987012553536]}}, {"type": "Feature", "properties": {"norad_id": 43057, "name": "GSAT0217 (GALILEO 21)", "group": "gnss", "lat": -54.74110505606297, "lon": 145.94657888043136, "alt_km": 23226.089230888272, "timestamp": "2025-12-22T05:49:03.742368+00:00", "meta": {"OBJECT_NAME": "GSAT0217 (GALILEO 21)", "OBJECT_ID": "2017-079C", "EPOCH": "2025-12-21T04:57:56.651616", "MEAN_MOTION": 1.70474014, "ECCENTRICITY": 0.00027256, "INCLINATION": 55.1257, "RA_OF_ASC_NODE": 226.4024, "ARG_OF_PERICENTER": 351.227, "MEAN_ANOMALY": 8.8769, "EPHEMERIS_TYPE": 0, "CLASSIFICATION_TYPE": "U", "NORAD_CAT_ID": 43057, "ELEMENT_SET_NO": 999, "REV_AT_EPOCH": 4995, "BSTAR": 0, "MEAN_MOTION_DOT": 7.3e-07, "MEAN_MOTION_DDOT": 0}, "tle": {"line1": "1 43057U 17079C   25355.20690569  .00000073  00000+0  00000+0 0  9998", "line2": "2 43057  55.1257 226.4024 0002725 351.2270   8.8769  1.70474014 49955"}}, "geometry": {"type": "Point", "coordinates": [145.94657888043136, -54.74110505606297]}}, {"type": "Feature", "properties": {"norad_id": 43058, "name": "GSAT0218 (GALILEO 22)", "group": "gnss", "lat": 31.46529844732751, "lon": 21.13391305281052, "alt_km": 23226.32561251141, "timestamp": "2025-12-22T05:49:03.742379+00:00", "meta": {"OBJECT_NAME": "GSAT0218 (GALILEO 22)", "OBJECT_ID": "2017-079D", "EPOCH": "2025-12-20T06:05:26.226528", "MEAN_MOTION": 1.70474115, "ECCENTRICITY": 0.00027735, "INCLINATION": 55.1262, "RA_OF_ASC_NODE": 226.4264, "ARG_OF_PERICENTER": 307.8467, "MEAN_ANOMALY": 52.2377, "EPHEMERIS_TYPE": 0, "CLASSIFICATION_TYPE": "U", "NORAD_CAT_ID": 43058, "ELEMENT_SET_NO": 999, "REV_AT_EPOCH": 4996, "BSTAR": 0, "MEAN_MOTION_DOT": 7e-07, "MEAN_MOTION_DDOT": 0}, "tle": {"line1": "1 43058U 17079D   25354.25377577  .00000070  00000+0  00000+0 0  9991", "line2": "2 43058  55.1262 226.4264 0002773 307.8467  52.2377  1.70474115 49967"}}, "geometry": {"type": "Point", "coordinates": [21.13391305281052, 31.46529844732751]}}]}